{
  "type": "FeatureCollection",
  "features": [
    {
      "type": "Feature",
      "properties": {
        "norad_id": 66724,
        "name": "FLOCK 4H-21",
        "group": "last-30-days",
        "lat": 31.46845141073708,
        "lon": 62.74254239189867,
        "alt_km": 510.4670108959326,
        "timestamp": "2025-12-21T16:47:53.449342+00:00",
        "meta_object_name": "FLOCK 4H-21",
        "meta_object_id": "2025-276BL",
        "meta_epoch": "2025-12-21T07:10:06.752928",
        "meta_mean_motion": 15.18333703,
        "meta_eccentricity": 0.0002464,
        "meta_inclination": 97.4399,
        "meta_ra_of_asc_node": 66.9353,
        "meta_arg_of_pericenter": 173.1371,
        "meta_mean_anomaly": 186.9897,
        "meta_ephemeris_type": 0,
        "meta_classification_type": "U",
        "meta_norad_cat_id": 66724,
        "meta_element_set_no": 999,
        "meta_rev_at_epoch": 267,
        "meta_bstar": 0.00041575,
        "meta_mean_motion_dot": 8.471e-05,
        "meta_mean_motion_ddot": 0,
        "tle_line1": "1 66724U 25276BL  25355.29868927  .00008471  00000+0  41575-3 0  9992",
        "tle_line2": "2 66724  97.4399  66.9353 0002464 173.1371 186.9897 15.18333703  2676"
      },
      "geometry": {
        "type": "Point",
        "coordinates": [
          62.74254239189867,
          31.46845141073708
        ]
      }
    },
    {
      "type": "Feature",
      "properties": {
        "norad_id": 66725,
        "name": "FLOCK 4H-22",
        "group": "last-30-days",
        "lat": -37.20550028128276,
        "lon": 72.98778569436405,
        "alt_km": 518.9110630524438,
        "timestamp": "2025-12-21T16:47:53.449354+00:00",
        "meta_object_name": "FLOCK 4H-22",
        "meta_object_id": "2025-276BM",
        "meta_epoch": "2025-12-21T12:12:56.329920",
        "meta_mean_motion": 15.17468358,
        "meta_eccentricity": 0.0001603,
        "meta_inclination": 97.4382,
        "meta_ra_of_asc_node": 67.108,
        "meta_arg_of_pericenter": 301.0053,
        "meta_mean_anomaly": 59.1023,
        "meta_ephemeris_type": 0,
        "meta_classification_type": "U",
        "meta_norad_cat_id": 66725,
        "meta_element_set_no": 999,
        "meta_rev_at_epoch": 345,
        "meta_bstar": 0.00023166,
        "meta_mean_motion_dot": 4.572e-05,
        "meta_mean_motion_ddot": 0,
        "tle_line1": "1 66725U 25276BM  25355.50898530  .00004572  00000+0  23166-3 0  9994",
        "tle_line2": "2 66725  97.4382  67.1080 0001603 301.0053  59.1023 15.17468358  3455"
      },
      "geometry": {
        "type": "Point",
        "coordinates": [
          72.98778569436405,
          -37.20550028128276
        ]
      }
    },
    {
      "type": "Feature",
      "properties": {
        "norad_id": 66726,
        "name": "FLOCK 4H-23",
        "group": "last-30-days",
        "lat": -55.2398800195405,
        "lon": 78.17217645106315,
        "alt_km": 520.0229101782679,
        "timestamp": "2025-12-21T16:47:53.449363+00:00",
        "meta_object_name": "FLOCK 4H-23",
        "meta_object_id": "2025-276BN",
        "meta_epoch": "2025-12-21T12:17:44.822112",
        "meta_mean_motion": 15.17205945,
        "meta_eccentricity": 0.0003308,
        "meta_inclination": 97.4451,
        "meta_ra_of_asc_node": 67.1266,
        "meta_arg_of_pericenter": 250.7614,
        "meta_mean_anomaly": 109.3262,
        "meta_ephemeris_type": 0,
        "meta_classification_type": "U",
        "meta_norad_cat_id": 66726,
        "meta_element_set_no": 999,
        "meta_rev_at_epoch": 345,
        "meta_bstar": 0.0003234,
        "meta_mean_motion_dot": 6.363e-05,
        "meta_mean_motion_ddot": 0,
        "tle_line1": "1 66726U 25276BN  25355.51232433  .00006363  00000+0  32340-3 0  9994",
        "tle_line2": "2 66726  97.4451  67.1266 0003308 250.7614 109.3262 15.17205945  3450"
      },
      "geometry": {
        "type": "Point",
        "coordinates": [
          78.17217645106315,
          -55.2398800195405
        ]
      }
    },
    {
      "type": "Feature",
      "properties": {
        "norad_id": 66727,
        "name": "FLOCK 4H-24",
        "group": "last-30-days",
        "lat": -46.74668519827543,
        "lon": 75.30607076628026,
        "alt_km": 519.4295894367269,
        "timestamp": "2025-12-21T16:47:53.449374+00:00",
        "meta_object_name": "FLOCK 4H-24",
        "meta_object_id": "2025-276BP",
        "meta_epoch": "2025-12-21T10:40:30.326016",
        "meta_mean_motion": 15.17311145,
        "meta_eccentricity": 0.0002762,
        "meta_inclination": 97.4447,
        "meta_ra_of_asc_node": 67.0661,
        "meta_arg_of_pericenter": 269.9246,
        "meta_mean_anomaly": 90.1671,
        "meta_ephemeris_type": 0,
        "meta_classification_type": "U",
        "meta_norad_cat_id": 66727,
        "meta_element_set_no": 999,
        "meta_rev_at_epoch": 344,
        "meta_bstar": 0.00034386,
        "meta_mean_motion_dot": 6.79e-05,
        "meta_mean_motion_ddot": 0,
        "tle_line1": "1 66727U 25276BP  25355.44479544  .00006790  00000+0  34386-3 0  9999",
        "tle_line2": "2 66727  97.4447  67.0661 0002762 269.9246  90.1671 15.17311145  3440"
      },
      "geometry": {
        "type": "Point",
        "coordinates": [
          75.30607076628026,
          -46.74668519827543
        ]
      }
    },
    {
      "type": "Feature",
      "properties": {
        "norad_id": 66728,
        "name": "FLOCK 4H-25",
        "group": "last-30-days",
        "lat": 25.670040555717765,
        "lon": 63.736046076676935,
        "alt_km": 510.25283623184805,
        "timestamp": "2025-12-21T16:47:53.449384+00:00",
        "meta_object_name": "FLOCK 4H-25",
        "meta_object_id": "2025-276BQ",
        "meta_epoch": "2025-12-21T05:36:41.673888",
        "meta_mean_motion": 15.1818789,
        "meta_eccentricity": 0.0001415,
        "meta_inclination": 97.4392,
        "meta_ra_of_asc_node": 66.8783,
        "meta_arg_of_pericenter": 100.0708,
        "meta_mean_anomaly": 260.0686,
        "meta_ephemeris_type": 0,
        "meta_classification_type": "U",
        "meta_norad_cat_id": 66728,
        "meta_element_set_no": 999,
        "meta_rev_at_epoch": 269,
        "meta_bstar": 0.00030635,
        "meta_mean_motion_dot": 6.196e-05,
        "meta_mean_motion_ddot": 0,
        "tle_line1": "1 66728U 25276BQ  25355.23381567  .00006196  00000+0  30635-3 0  9997",
        "tle_line2": "2 66728  97.4392  66.8783 0001415 100.0708 260.0686 15.18187890  2693"
      },
      "geometry": {
        "type": "Point",
        "coordinates": [
          63.736046076676935,
          25.670040555717765
        ]
      }
    },
    {
      "type": "Feature",
      "properties": {
        "norad_id": 66729,
        "name": "FLOCK 4H-26",
        "group": "last-30-days",
        "lat": -62.81946668423705,
        "lon": 82.03624016924333,
        "alt_km": 519.661736126739,
        "timestamp": "2025-12-21T16:47:53.449394+00:00",
        "meta_object_name": "FLOCK 4H-26",
        "meta_object_id": "2025-276BR",
        "meta_epoch": "2025-12-21T12:19:48.138240",
        "meta_mean_motion": 15.1713599,
        "meta_eccentricity": 0.0003591,
        "meta_inclination": 97.44,
        "meta_ra_of_asc_node": 67.1104,
        "meta_arg_of_pericenter": 262.8676,
        "meta_mean_anomaly": 97.2149,
        "meta_ephemeris_type": 0,
        "meta_classification_type": "U",
        "meta_norad_cat_id": 66729,
        "meta_element_set_no": 999,
        "meta_rev_at_epoch": 345,
        "meta_bstar": 0.00033394,
        "meta_mean_motion_dot": 6.56e-05,
        "meta_mean_motion_ddot": 0,
        "tle_line1": "1 66729U 25276BR  25355.51375160  .00006560  00000+0  33394-3 0  9991",
        "tle_line2": "2 66729  97.4400  67.1104 0003591 262.8676  97.2149 15.17135990  3455"
      },
      "geometry": {
        "type": "Point",
        "coordinates": [
          82.03624016924333,
          -62.81946668423705
        ]
      }
    },
    {
      "type": "Feature",
      "properties": {
        "norad_id": 66730,
        "name": "FLOCK 4H-27",
        "group": "last-30-days",
        "lat": 14.689916714592055,
        "lon": 65.35727266761627,
        "alt_km": 512.9850972793847,
        "timestamp": "2025-12-21T16:47:53.449406+00:00",
        "meta_object_name": "FLOCK 4H-27",
        "meta_object_id": "2025-276BS",
        "meta_epoch": "2025-12-21T10:24:18.782208",
        "meta_mean_motion": 15.1806278,
        "meta_eccentricity": 0.0001145,
        "meta_inclination": 97.4382,
        "meta_ra_of_asc_node": 67.0582,
        "meta_arg_of_pericenter": 129.5514,
        "meta_mean_anomaly": 230.5821,
        "meta_ephemeris_type": 0,
        "meta_classification_type": "U",
        "meta_norad_cat_id": 66730,
        "meta_element_set_no": 999,
        "meta_rev_at_epoch": 344,
        "meta_bstar": 0.00038882,
        "meta_mean_motion_dot": 7.856e-05,
        "meta_mean_motion_ddot": 0,
        "tle_line1": "1 66730U 25276BS  25355.43355072  .00007856  00000+0  38882-3 0  9990",
        "tle_line2": "2 66730  97.4382  67.0582 0001145 129.5514 230.5821 15.18062780  3443"
      },
      "geometry": {
        "type": "Point",
        "coordinates": [
          65.35727266761627,
          14.689916714592055
        ]
      }
    }
  ]
}